{
  "norad_id": 46507,
  "name": "NETSAT-2",
  "history": [
    {
      "epoch": "2026-03-28T18:02:49.253280",
      "apogee_km": 439.9036075052454,
      "perigee_km": 437.49562813836656,
      "latitude_deg": -58.92006570848027,
      "longitude_deg": -17.111940800212324,
      "semi_major_axis_km": 6816.836617821806,
      "eccentricity": 0.00017662,
      "inclination_deg": 97.8652,
      "raan_deg": 89.3419,
      "arg_perigee_deg": 289.5614,
      "mean_anomaly_deg": 70.5441,
      "mean_motion_rev_day": 15.42511584
    }
  ]
}