{"fetched_at":"2026-03-29T16:36:15Z","count":15609,"tles":[{"name":"NETSAT-2","line1":"1 46507U 20068X   26087.75195895  .00027413  00000+0  63296-3 0  9995","line2":"2 46507  97.8652  89.3419 0001766 289.5614  70.5441 15.42511584303328","category":"Other"}]}